STARLINK-4255           
1 53003U 22076T   22200.58334491 -.00226395  00000+0 -16438-2 0  9993
2 53003  53.2189 320.0064 0001401  39.9059 316.4626 15.73321351  2390
STARLINK-4253           
1 53004U 22076U   22200.25001157  .00000957  00000+0  11234-4 0  9991
2 53004  53.2177 321.6554 0001188  74.1881 190.8316 15.73203034  2347
STARLINK-4288           
1 53005U 22076V   22200.58334491 -.00236586  00000+0 -17201-2 0  9997
2 53005  53.2190 320.0052 0001347  39.8429 317.1369 15.73320989  2398
STARLINK-4290           
1 53006U 22076W   22200.58334491 -.00243169  00000+0 -17690-2 0  9995
2 53006  53.2191 320.0077 0001498  43.4047 312.3854 15.73326392  2391
STARLINK-4215           
1 53007U 22076X   22200.58334491  .00358839  00000+0  24582-2 0  9993
2 53007  53.2188 320.0012 0001363  30.8570 327.6970 15.73155155  2394
STARLINK-4275           
1 53008U 22076Y   22200.58334491  .00083085  00000+0  59256-3 0  9999
2 53008  53.2185 320.0018 0001338  54.9856 302.6137 15.73120893  2393
STARLINK-4277           
1 53009U 22076Z   22200.25001157 -.00016315  00000+0 -11199-3 0  9992
2 53009  53.2174 321.6424 0001215  88.1118 183.4613 15.73212951  2340
STARLINK-4263           
1 53010U 22076AA  22200.25001157 -.00000042  00000+0  41121-5 0  9993
2 53010  53.2174 321.6469 0001094  75.8614 193.3318 15.73203146  2348
STARLINK-4265           
1 53011U 22076AB  22200.25001157 -.00027668  00000+0 -19320-3 0  9992
2 53011  53.2176 321.6415 0001173  73.9593 198.2065 15.73220032  2341
STARLINK-4271           
1 53012U 22076AC  22200.25001157 -.00006494  00000+0 -41878-4 0  9991
2 53012  53.2174 321.6445 0001175  86.4802 183.9035 15.73206897  2348
STARLINK-4177           
1 53013U 22076AD  22200.25001157 -.00044427  00000+0 -31339-3 0  9990
2 53013  53.2174 321.6378 0001174  59.6428 214.3064 15.73230469  2342
STARLINK-4183           
1 53014U 22076AE  22200.58334491 -.00217448  00000+0 -15812-2 0  9999
2 53014  53.2188 319.9983 0001413  50.3092 309.6707 15.73259390  2392
STARLINK-4262           
1 53015U 22076AF  22200.25001157 -.00069023  00000+0 -49045-3 0  9994
2 53015  53.2174 321.6354 0001265  64.2026 210.9315 15.73245813  2345
STARLINK-4283           
1 53016U 22076AG  22200.58334491  .00132738  00000+0  93950-3 0  9997
2 53016  53.2183 319.9929 0001397  51.6216 310.1581 15.73095308  2396
STARLINK-4281           
1 53017U 22076AH  22200.58334491  .00015842  00000+0  11711-3 0  9999
2 53017  53.2180 319.9870 0001469  46.2768 318.4108 15.73193663  2390
STARLINK-4279           
1 53018U 22076AJ  22200.25001157 -.00031880  00000+0 -22338-3 0  9993
2 53018  53.2174 321.6387 0001065  80.7998 192.5570 15.73222711  2343
STARLINK-4282           
1 53019U 22076AK  22200.58334491 -.00001424  00000+0 -57251-5 0  9995
2 53019  53.2175 319.9842 0001673  38.0247 327.8495 15.73204855  2392
STARLINK-4287           
1 53020U 22076AL  22200.25001157 -.00055141  00000+0 -39043-3 0  9993
2 53020  53.2174 321.6362 0001105  74.9940 199.5482 15.73237136  2342
STARLINK-4203           
1 53021U 22076AM  22200.58334491 -.00001143  00000+0 -37255-5 0  9998
2 53021  53.2175 319.9818 0001587 324.5580  42.5085 15.73204722  2394
STARLINK-4216           
1 53022U 22076AN  22200.58334491 -.00000027  00000+0  42297-5 0  9990
2 53022  53.2175 319.9850 0001497  43.6409 321.6381 15.73203647  2395
STARLINK-4284           
1 53023U 22076AP  22200.58334491 -.00001485  00000+0 -61615-5 0  9996
2 53023  53.2175 319.9794 0001477  46.1400 322.1186 15.73204890  2390
STARLINK-4289           
1 53024U 22076AQ  22200.50001157  .00001290  00000+0  13602-4 0  9993
2 53024  53.2177 320.3922 0001324  53.1521 202.2777 15.73203448  2386
STARLINK-4218           
1 53025U 22076AR  22200.58334491 -.00001521  00000+0 -64185-5 0  9994
2 53025  53.2175 319.9771 0001349  53.9291 315.5217 15.73204911  2394
STARLINK-4119           
1 53026U 22076AS  22200.58334491 -.00001483  00000+0 -61453-5 0  9997
2 53026  53.2175 319.9826 0001461  47.2328 319.2376 15.73204889  2399
STARLINK-4158           
1 53027U 22076AT  22200.58334491 -.00001612  00000+0 -70679-5 0  9992
2 53027  53.2175 319.9735 0001251  62.5295 308.7097 15.73204965  2397
STARLINK-4161           
1 53028U 22076AU  22200.58334491 -.00001544  00000+0 -65843-5 0  9994
2 53028  53.2175 319.9778 0001243  63.0057 305.8490 15.73204927  2391
STARLINK-4143           
1 53029U 22076AV  22200.58334491 -.00001350  00000+0 -52008-5 0  9999
2 53029  53.2175 319.9724 0001208 339.9909  31.8444 15.73204832  2395
STARLINK-4160           
1 53030U 22076AW  22200.58334491 -.00001547  00000+0 -66029-5 0  9997
2 53030  53.2175 319.9755 0001312  56.4174 313.6296 15.73204931  2398
STARLINK-4137           
1 53031U 22076AX  22200.58334491 -.00001698  00000+0 -76838-5 0  9994
2 53031  53.2175 319.9688 0001380  51.7855 321.8380 15.73205012  2399
STARLINK-4115           
1 53032U 22076AY  22200.58334491 -.00001609  00000+0 -70497-5 0  9992
2 53032  53.2175 319.9743 0001393  51.0461 319.5970 15.73204959  2390
STARLINK-4167           
1 53033U 22076AZ  22200.58334491 -.00001630  00000+0 -71983-5 0  9998
2 53033  53.2175 319.9701 0001402  50.4169 322.6106 15.73204974  2397
STARLINK-4151           
1 53034U 22076BA  22200.58334491 -.00001638  00000+0 -72520-5 0  9995
2 53034  53.2175 319.9707 0001503  44.8853 327.5460 15.73204979  2384
STARLINK-4157           
1 53035U 22076BB  22200.58334491 -.00001675  00000+0 -75119-5 0  9994
2 53035  53.2175 319.9678 0001475  46.1952 328.0245 15.73204999  2384
STARLINK-4155           
1 53036U 22076BC  22200.58334491 -.00001685  00000+0 -75869-5 0  9998
2 53036  53.2175 319.9658 0001296  58.1105 316.7053 15.73205002  2384
STARLINK-4153           
1 53037U 22076BD  22200.58334491 -.00001689  00000+0 -76195-5 0  9996
2 53037  53.2175 319.9654 0001242  62.9579 312.4540 15.73205005  2387
STARLINK-4156           
1 53038U 22076BE  22200.58334491 -.00001709  00000+0 -77570-5 0  9998
2 53038  53.2175 319.9635 0001329  55.4696 320.5385 15.73205015  2388
FALCON 9 DEB            
1 53039U 22076BF  22200.46210694  .01069982  11602-4  83916-3 0  9994
2 53039  53.2211 319.1867 0052633  80.9800 279.7188 16.10759492  1923
FALCON 9 DEB            
1 53040U 22076BG  22200.52021251  .01194240  11614-4  92878-3 0  9998
2 53040  53.2166 318.8269 0048000  83.2300 277.4196 16.11389364  1933
FALCON 9 DEB            
1 53041U 22076BH  22200.51147482  .01096911  11649-4  78934-3 0  9994
2 53041  53.2188 318.7631 0046154  76.0121 284.6042 16.12641411  1934
FALCON 9 DEB            
1 53042U 22076BJ  22200.50804518  .01321790  11689-4  85947-3 0  9996
2 53042  53.2202 318.7417 0044983  76.1857 284.4181 16.14102113  1934
STARLINK-4362           
1 53043U 22077A   22200.58334491 -.00123268  00000+0 -10297-2 0  9990
2 53043  97.6587  18.9250 0001419  84.7536 125.7138 15.70311064   636
STARLINK-4349           
1 53044U 22077B   22200.50001157  .00057623  00000+0  47421-3 0  9992
2 53044  97.6584  18.8332 0001214  66.5448  33.7235 15.70234139  1912
STARLINK-4350           
1 53045U 22077C   22200.50001157  .00071212  00000+0  58401-3 0  9993
2 53045  97.6583  18.8344 0001339  78.3886  22.5551 15.70267926  1917
STARLINK-4331           
1 53046U 22077D   22200.50001157 -.00035567  00000+0 -29238-3 0  9995
2 53046  97.6571  18.8334 0000902  78.5631  22.6715 15.70384074  1916
STARLINK-4352           
1 53047U 22077E   22200.16667824 -.00010528  00000+0 -86037-4 0  9998
2 53047  97.6622  18.4705 0001439  92.9283 286.6893 15.70238827  1868
STARLINK-4355           
1 53048U 22077F   22200.50001157 -.00110494  00000+0 -91803-3 0  9997
2 53048  97.6569  18.8340 0001289  76.1483  25.7703 15.70402073  1911
STARLINK-4345           
1 53049U 22077G   22200.50001157  .00054205  00000+0  44716-3 0  9994
2 53049  97.6600  18.8367 0001117  67.7735  36.7204 15.70189097  1335
STARLINK-4343           
1 53050U 22077H   22200.50001157  .00069197  00000+0  56766-3 0  9990
2 53050  97.6583  18.8350 0000971  68.4626  34.8383 15.70268197  1913
STARLINK-4336           
1 53051U 22077J   22199.91667824 -.00032641  00000+0 -26917-3 0  9993
2 53051  97.6617  18.1970 0001552  91.2198 319.0499 15.70290584  1301
STARLINK-4341           
1 53052U 22077K   22200.50001157  .00050857  00000+0  41899-3 0  9996
2 53052  97.6581  18.8361 0001393  75.4839  28.3847 15.70233921  1918
STARLINK-4337           
1 53053U 22077L   22200.50001157  .00055485  00000+0  45612-3 0  9996
2 53053  97.6602  18.8383 0001413  78.1227  28.6787 15.70268458  1910
STARLINK-4339           
1 53054U 22077M   22200.50001157  .00056069  00000+0  46135-3 0  9997
2 53054  97.6592  18.8365 0001437  76.5279  28.5272 15.70243359  1915
STARLINK-4338           
1 53055U 22077N   22200.50001157 -.00056725  00000+0 -46774-3 0  9998
2 53055  97.6577  18.8383 0001537  81.1964  26.6810 15.70403048  1913
STARLINK-4314           
1 53056U 22077P   22200.50001157  .00048991  00000+0  40427-3 0  9992
2 53056  97.6589  18.8369 0001063  77.6200  28.6704 15.70202772  1913
STARLINK-4252           
1 53057U 22077Q   22200.50001157 -.00064796  00000+0 -53552-3 0  9999
2 53057  97.6576  18.8387 0001290  81.6885  27.3717 15.70378248  1918
STARLINK-4317           
1 53058U 22077R   22200.58334491 -.00160341  00000+0 -13407-2 0  9995
2 53058  97.6571  18.9283 0001558  74.1228 144.0152 15.70398446  1344
STARLINK-4320           
1 53059U 22077S   22199.91667824  .00117373  00000+0  95770-3 0  9998
2 53059  97.6594  18.1995 0001731  92.3923 322.2984 15.70239281  1826
STARLINK-4305           
1 53060U 22077T   22200.50001157  .00057924  00000+0  47637-3 0  9993
2 53060  97.6609  18.8389 0001264  77.4224  31.2288 15.70248699  1915
STARLINK-4308           
1 53061U 22077U   22200.50001157  .00055981  00000+0  46073-3 0  9998
2 53061  97.6617  18.8413 0001219  80.4793  31.1568 15.70238534  1915
